      2.10          N: GNSS NAV DATA                        RINEX VERSION / TYPE
fic2rin                                 10/30/2020 00:17:30 PGM / RUN BY / DATE
                                                            END OF HEADER
25 20 10 29 12  0  0.0 1.313444226980e-05 6.252776074689e-12 0.000000000000e+00
    8.600000000000e+01 4.218750000000e+00 4.847701926243e-09 1.359994834752e+00
    9.685754776001e-08 9.245565626770e-03 2.587214112282e-06 5.153711923599e+03
    3.888000000000e+05-1.750886440277e-07-1.784510812038e+00 5.215406417847e-08
    9.633394256967e-01 3.305312500000e+02 9.296748411688e-01-8.586786245542e-09
   -3.142988060926e-11 1.000000000000e+00 2.129000000000e+03 0.000000000000e+00
    2.400000000000e+00 0.000000000000e+00 5.587935447693e-09 8.600000000000e+01
    3.816000000000e+05 4.000000000000e+00
13 20 10 29 12  0  0.0 5.950313061476e-05 3.865352482535e-12 0.000000000000e+00
    5.700000000000e+01-2.600000000000e+01 4.131243511446e-09-1.770670803866e+00
   -1.383945345879e-06 4.727688967250e-03 1.104734838009e-05 5.153691736221e+03
    3.888000000000e+05 1.210719347000e-07 2.533545157834e+00-1.862645149231e-08
    9.681326080263e-01 1.717500000000e+02 1.050217058487e+00-7.718892951446e-09
   -4.435899058715e-10 1.000000000000e+00 2.129000000000e+03 0.000000000000e+00
    2.400000000000e+00 0.000000000000e+00-1.164153218269e-08 5.700000000000e+01
    3.816000000000e+05 4.000000000000e+00
17 20 10 29 12  0  0.0 3.465674817562e-04 5.343281372916e-12 0.000000000000e+00
    3.400000000000e+01-6.509375000000e+01 3.951950328880e-09-1.254250984702e+00
   -3.106892108917e-06 1.359626487829e-02 9.858980774879e-06 5.153780847549e+03
    3.888000000000e+05-1.471489667892e-07-6.781972484033e-01 3.241002559662e-07
    9.834649696521e-01 2.045312500000e+02-1.628007576982e+00-7.826754587173e-09
   -2.185805333280e-10 1.000000000000e+00 2.129000000000e+03 0.000000000000e+00
    2.400000000000e+00 0.000000000000e+00-1.117587089539e-08 3.400000000000e+01
    3.816000000000e+05 4.000000000000e+00
21 20 10 29 12  0  0.0 6.276415660977e-05 3.865352482535e-12 0.000000000000e+00
    6.900000000000e+01 3.500000000000e+01 4.733054293567e-09-5.873052469809e-01
    1.754611730576e-06 2.384682314005e-02 1.081451773643e-05 5.154998914719e+03
    3.888000000000e+05-3.129243850708e-07 2.400089762629e-01-4.284083843231e-08
    9.552241553660e-01 1.764062500000e+02-1.271162964308e+00-8.450351991079e-09
    6.282404544509e-10 1.000000000000e+00 2.129000000000e+03 0.000000000000e+00
    2.400000000000e+00 0.000000000000e+00-1.024454832077e-08 6.900000000000e+01
    3.816000000000e+05 4.000000000000e+00
18 20 10 29 12  0  0.0 3.141141496599e-04 5.343281372916e-12 0.000000000000e+00
    9.400000000000e+01 5.315625000000e+01 4.442327897931e-09-2.975455191583e+00
    2.861022949219e-06 1.140540582128e-03 1.005269587040e-05 5.153709836960e+03
    3.888000000000e+05-3.725290298462e-09 3.329174069120e-01-1.862645149231e-09
    9.658908484537e-01 1.900312500000e+02 2.862957614911e+00-7.947831059065e-09
    5.539516457381e-10 1.000000000000e+00 2.129000000000e+03 0.000000000000e+00
    2.400000000000e+00 0.000000000000e+00-8.381903171539e-09 9.400000000000e+01
    3.816000000000e+05 4.000000000000e+00
26 20 10 29 12  0  0.0 3.031366504729e-04 6.139089236967e-12 0.000000000000e+00
    9.400000000000e+01 1.178125000000e+01 5.240218276125e-09 8.139846871695e-01
    6.500631570816e-07 5.166259827092e-03 1.950189471245e-06 5.153696195602e+03
    3.888000000000e+05 1.862645149231e-08-1.822720011559e+00 1.061707735062e-07
    9.443729210142e-01 3.314687500000e+02 2.011407145924e-01-8.724291973208e-09
    2.750114553310e-11 1.000000000000e+00 2.129000000000e+03 0.000000000000e+00
    2.400000000000e+00 0.000000000000e+00 6.984919309616e-09 9.400000000000e+01
    3.816000000000e+05 4.000000000000e+00
27 20 10 29 12  0  0.0-1.713167876005e-06-8.526512829121e-12 0.000000000000e+00
    4.000000000000e+00-8.593750000000e+01 4.059811964607e-09-1.101422817836e+00
   -4.447996616364e-06 8.465399150737e-03 9.659677743912e-06 5.153675340652e+03
    3.888000000000e+05 2.235174179077e-07-7.375744190265e-01-3.911554813385e-08
    9.774099034457e-01 1.993437500000e+02 5.691882471237e-01-7.847826893491e-09
   -2.810831368123e-10 1.000000000000e+00 2.129000000000e+03 0.000000000000e+00
    2.400000000000e+00 0.000000000000e+00 1.862645149231e-09 2.600000000000e+02
    3.816000000000e+05 4.000000000000e+00
23 20 10 29 12  0  0.0 9.313970804214e-05 5.570655048359e-12 0.000000000000e+00
    1.180000000000e+02-2.531250000000e+00 5.080568768939e-09 3.042333195241e+00
   -7.450580596924e-08 1.085377414711e-03 3.652647137642e-06 5.153619312286e+03
    3.888000000000e+05 3.539025783539e-08 1.332006164638e+00 8.381903171539e-08
    9.615493713395e-01 3.095625000000e+02 2.051968925451e+00-8.473567243802e-09
   -1.678641350722e-11 1.000000000000e+00 2.129000000000e+03 0.000000000000e+00
    2.400000000000e+00 0.000000000000e+00-8.381903171539e-09 3.740000000000e+02
    3.816000000000e+05 4.000000000000e+00
19 20 10 29 11 59 44.0-8.540786802769e-05 5.002220859751e-12 0.000000000000e+00
    5.000000000000e+00-7.212500000000e+01 3.911948662650e-09 1.362227901666e+00
   -3.859400749207e-06 9.061185759492e-03 9.907409548759e-06 5.153603918076e+03
    3.887840000000e+05 7.450580596924e-09-6.328098916892e-01-2.086162567139e-07
    9.818337340703e-01 2.014375000000e+02 1.740977278280e+00-7.737465153624e-09
   -1.871506527187e-10 1.000000000000e+00 2.129000000000e+03 0.000000000000e+00
    2.400000000000e+00 0.000000000000e+00-1.536682248116e-08 5.000000000000e+00
    3.822000000000e+05 4.000000000000e+00
10 20 10 29 11 59 44.0-4.916144534945e-04-9.322320693173e-12 0.000000000000e+00
    6.000000000000e+00-2.500000000000e+00 4.997351016872e-09 1.005184640809e+00
    1.303851604462e-08 6.068136659451e-03 3.661960363388e-06 5.153662050247e+03
    3.887840000000e+05 2.421438694000e-08 1.354377093277e+00 6.519258022308e-08
    9.666081274284e-01 3.115625000000e+02-2.661414167748e+00-8.496782496525e-09
   -1.385772008681e-10 1.000000000000e+00 2.129000000000e+03 0.000000000000e+00
    2.400000000000e+00 0.000000000000e+00 2.328306436539e-09 6.000000000000e+00
    3.832200000000e+05 4.000000000000e+00
27 20 10 29 11 59 44.0-1.713633537292e-06-8.526512829121e-12 0.000000000000e+00
    1.600000000000e+01-8.593750000000e+01 4.059811964607e-09-1.103756697360e+00
   -4.447996616364e-06 8.465402759612e-03 9.659677743912e-06 5.153675348282e+03
    3.887840000000e+05 2.235174179077e-07-7.375743166223e-01-3.911554813385e-08
    9.774099034457e-01 1.993437500000e+02 5.691883539168e-01-7.847826893491e-09
   -2.810831368123e-10 1.000000000000e+00 2.129000000000e+03 0.000000000000e+00
    2.400000000000e+00 0.000000000000e+00 1.862645149231e-09 1.600000000000e+01
    3.834000000000e+05 4.000000000000e+00
 4 20 10 29 12 29 36.0-1.501217484474e-04-3.751665644813e-12 0.000000000000e+00
    2.200000000000e+02-4.784375000000e+01 4.341966574622e-09-1.397485554243e+00
   -2.514570951462e-06 8.821814553812e-04 1.062266528606e-05 5.153622253418e+03
    3.905760000000e+05-5.587935447693e-08 2.437385263017e+00-7.450580596924e-08
    9.602624627860e-01 1.749375000000e+02-3.003858939833e+00-7.876042354492e-09
   -5.121641908372e-10 1.000000000000e+00 2.129000000000e+03 0.000000000000e+00
    2.400000000000e+00 0.000000000000e+00-4.190951585770e-09 2.200000000000e+02
    3.834000000000e+05 4.000000000000e+00
10 20 10 29 13 59 44.0-4.916815087199e-04-9.322320693173e-12 0.000000000000e+00
    7.000000000000e+00-3.781250000000e+00 4.961635243452e-09 2.055323848648e+00
   -1.564621925354e-07 6.068201502785e-03 3.898516297340e-06 5.153662651062e+03
    3.959840000000e+05-2.123415470123e-07 1.354315265970e+00 4.470348358154e-08
    9.666079855253e-01 3.095312500000e+02-2.661361647527e+00-8.379277601974e-09
    2.535819912792e-11 1.000000000000e+00 2.129000000000e+03 0.000000000000e+00
    2.400000000000e+00 0.000000000000e+00 2.328306436539e-09 7.000000000000e+00
    3.888000000000e+05 4.000000000000e+00
19 20 10 29 13 59 44.0-8.537154644728e-05 5.002220859751e-12 0.000000000000e+00
    6.000000000000e+00-8.062500000000e+01 3.881947412977e-09 2.412560881782e+00
   -4.190951585770e-06 9.061729884706e-03 9.909272193909e-06 5.153601768494e+03
    3.959840000000e+05 9.126961231232e-08-6.328643415001e-01-1.303851604462e-08
    9.818328899666e-01 1.992500000000e+02 1.740863483735e+00-7.559243444260e-09
   -2.485817830005e-10 1.000000000000e+00 2.129000000000e+03 0.000000000000e+00
    2.400000000000e+00 0.000000000000e+00-1.536682248116e-08 6.000000000000e+00
    3.888000000000e+05 4.000000000000e+00
27 20 10 29 13 59 44.0-1.775100827217e-06-8.526512829121e-12 0.000000000000e+00
    1.700000000000e+01-8.390625000000e+01 4.059097649138e-09-5.355715000170e-02
   -4.319474101067e-06 8.465962717310e-03 9.672716259956e-06 5.153676456451e+03
    3.959840000000e+05 1.043081283569e-07-7.376312709489e-01 9.313225746155e-08
    9.774071663260e-01 2.033750000000e+02 5.691652178673e-01-7.977832308738e-09
   -3.121558596874e-10 1.000000000000e+00 2.129000000000e+03 0.000000000000e+00
    2.400000000000e+00 0.000000000000e+00 1.862645149231e-09 1.700000000000e+01
    3.888000000000e+05 4.000000000000e+00
 3 20 10 29 14  0  0.0-3.393152728677e-04-1.011812855722e-11 0.000000000000e+00
    1.700000000000e+01 1.562500000000e-01 4.890918012081e-09 2.857638435997e+00
   -9.126961231232e-08 3.260892233811e-03 3.708526492119e-06 5.153712938309e+03
    3.960000000000e+05-6.146728992462e-08 1.357292598308e+00-5.960464477539e-08
    9.666892316067e-01 3.088437500000e+02 8.974018062616e-01-8.301417215920e-09
   -1.357199389945e-11 1.000000000000e+00 2.129000000000e+03 0.000000000000e+00
    2.400000000000e+00 0.000000000000e+00 1.862645149231e-09 1.700000000000e+01
    3.888000000000e+05 4.000000000000e+00
